GLOBALSTAR M084         
1 38040U 11080A   25184.96096898 -.00000093  00000+0  59458-4 0  9997
2 38040  52.0030 357.4091 0001141  86.7715  80.4321 12.62266912624789
GLOBALSTAR M080         
1 38041U 11080B   25184.93190102 -.00000085  00000+0  10371-3 0  9999
2 38041  52.0081 359.0956 0000795 125.1899  39.3059 12.62263800625043
GLOBALSTAR M082         
1 38042U 11080C   25184.78491964 -.00000096  00000+0  44030-4 0  9995
2 38042  52.0092 315.0056 0000698 144.4975   2.5539 12.62266967625592
GLOBALSTAR M092         
1 38043U 11080D   25185.07824770 -.00000102  00000+0  98874-5 0  9998
2 38043  52.0096  44.4897 0000837  77.1421  83.3161 12.62264456624291
GLOBALSTAR M090         
1 38044U 11080E   25185.50874973 -.00000105  00000+0 -80489-5 0  9994
2 38044  52.0139 306.6434 0000576 125.5248 313.7505 12.62273728625841
GLOBALSTAR M086         
1 38045U 11080F   25185.53528054 -.00000092  00000+0  64954-4 0  9996
2 38045  51.9915 307.0575 0001027  38.8707  41.4150 12.62272206625853
GLOBALSTAR M097         
1 39072U 13005A   25185.38585773 -.00000096  00000+0  41928-4 0  9990
2 39072  52.0031 222.0766 0000058 172.1327 187.9541 12.62265524573066
GLOBALSTAR M093         
1 39073U 13005B   25185.43870680 -.00000093  00000+0  58412-4 0  9994
2 39073  51.9785 215.1913 0000095 234.6591 125.4266 12.62265848573066
